NORAD_CAT_ID,OBJECT_NAME,OBJECT_TYPE,EPOCH,MEAN_MOTION,ECCENTRICITY,INCLINATION,RA_OF_ASC_NODE,ARG_OF_PERICENTER,MEAN_ANOMALY,BSTAR,MEAN_MOTION_DOT,MEAN_MOTION_DDOT,TLE_LINE0,TLE_LINE1,TLE_LINE2,SEMIMAJOR_AXIS,PERIOD,APOGEE,PERIGEE,DECAYED
50187.0,STARLINK-3272,PAYLOAD,2022-11-13 07:44:35,15.08841964,0.0002228,53.217,281.6452,37.3228,322.7918,0.00017296,2.466e-05,0.0,0 STARLINK-3272,1 50187U 21125AH  22317.32263785  .00002466  00000-0  17296-3 0  9999,2 50187  53.2170 281.6452 0002228  37.3228 322.7918 15.08841964 53699,6917.874,95.437,541.281,538.198,0.0
50187.0,STARLINK-3272,PAYLOAD,2022-11-13 17:16:55,15.08832979,0.0002262,53.2164,279.8593,42.481,317.6357,-2.8466e-05,-7.41e-06,0.0,0 STARLINK-3272,1 50187U 21125AH  22317.72008325 -.00000741  00000-0 -28466-4 0  9998,2 50187  53.2164 279.8593 0002262  42.4810 317.6357 15.08832979 50670,6917.901999999999,95.438,541.332,538.202,0.0
50187.0,STARLINK-3272,PAYLOAD,2022-11-14 07:35:23,15.08834531,0.0002002,53.2176,277.1825,45.4198,314.6957,4.780100000000001e-05,4.73e-06,0.0,0 STARLINK-3272,1 50187U 21125AH  22318.31624542  .00000473  00000-0  47801-4 0  9993,2 50187  53.2176 277.1825 0002002  45.4198 314.6957 15.08834531 53847,6917.897,95.438,541.1469999999998,538.377,0.0
50187.0,STARLINK-3272,PAYLOAD,2022-11-14 17:07:43,15.08831624,0.0001983,53.2178,275.3988,40.0868,320.0271,-2.7335e-05,-7.23e-06,0.0,0 STARLINK-3272,1 50187U 21125AH  22318.71369299 -.00000723  00000-0 -27335-4 0  9992,2 50187  53.2178 275.3988 0001983  40.0868 320.0271 15.08831624 53908,6917.906,95.438,541.143,538.399,0.0
50187.0,STARLINK-3272,PAYLOAD,2022-11-14 21:53:52,15.088379500000002,0.0002046,53.2177,274.507,41.4426,318.6721,1.8721e-05,1e-07,0.0,0 STARLINK-3272,1 50187U 21125AH  22318.91240869  .00000010  00000-0  18721-4 0  9991,2 50187  53.2177 274.5070 0002046  41.4426 318.6721 15.08837950 50858,6917.887,95.438,541.1669999999998,538.336,0.0
50187.0,STARLINK-3272,PAYLOAD,2022-11-15 05:50:47,15.08844476,0.0002074,53.2177,273.0202,42.3081,317.8071,8.145e-05,1.008e-05,0.0,0 STARLINK-3272,1 50187U 21125AH  22319.24360372  .00001008  00000-0  81450-4 0  9997,2 50187  53.2177 273.0202 0002074  42.3081 317.8071 15.08844476 53984,6917.8669999999975,95.437,541.1659999999998,538.297,0.0
50187.0,STARLINK-3272,PAYLOAD,2022-11-15 20:09:16,15.08833205,0.0002072,53.2174,270.3437,44.5285,315.5873,0.00016372,2.318e-05,0.0,0 STARLINK-3272,1 50187U 21125AH  22319.83977307  .00002318  00000-0  16372-3 0  9999,2 50187  53.2174 270.3437 0002072  44.5285 315.5873 15.08833205 54073,6917.901,95.438,541.2,538.3330000000002,0.0
50187.0,STARLINK-3272,PAYLOAD,2022-11-16 02:30:48,15.08841915,0.0002071,53.2167,269.1544,44.7338,315.3821,0.00024464,3.608e-05,0.0,0 STARLINK-3272,1 50187U 21125AH  22320.10473053  .00003608  00000-0  24464-3 0  9994,2 50187  53.2167 269.1544 0002071  44.7338 315.3821 15.08841915 51031,6917.875,95.437,541.172,538.307,0.0
50187.0,STARLINK-3272,PAYLOAD,2022-11-16 05:41:34,15.08846821,0.0001965,53.2168,268.5594,47.0194,313.0962,0.00029381,4.392e-05,0.0,0 STARLINK-3272,1 50187U 21125AH  22320.23720785  .00004392  00000-0  29381-3 0  9999,2 50187  53.2168 268.5594 0001965  47.0194 313.0962 15.08846821 54133,6917.86,95.437,541.0840000000002,538.365,0.0
50187.0,STARLINK-3272,PAYLOAD,2022-11-17 05:32:21,15.08852529,0.0001956,53.2161,264.0991,47.3517,312.764,0.00025785,3.819e-05,0.0,0 STARLINK-3272,1 50187U 21125AH  22321.23080320  .00003819  00000-0  25785-3 0  9991,2 50187  53.2161 264.0991 0001956  47.3517 312.7640 15.08852529 51206,6917.842,95.437,541.06,538.354,0.0
50187.0,STARLINK-3272,PAYLOAD,2022-11-17 13:29:17,15.08840574,0.000219,53.218,262.6087,42.2844,317.8317,-3.4653e-05,-8.400000000000001e-06,0.0,0 STARLINK-3272,1 50187U 21125AH  22321.56200595 -.00000840  00000-0 -34653-4 0  9993,2 50187  53.2180 262.6087 0002190  42.2844 317.8317 15.08840574 54336,6917.879,95.438,541.259,538.229,0.0
50187.0,STARLINK-3272,PAYLOAD,2022-11-17 18:15:27,15.0882996,0.0001992,53.2163,261.7204,44.0273,316.0878,-0.00018344,-3.206e-05,0.0,0 STARLINK-3272,1 50187U 21125AH  22321.76073167 -.00003206  00000-0 -18344-3 0  9995,2 50187  53.2163 261.7204 0001992  44.0273 316.0878 15.08829960 51283,6917.911,95.438,541.154,538.398,0.0
50187.0,STARLINK-3272,PAYLOAD,2022-11-17 19:50:50,15.08829493,0.0001974,53.216,261.423,46.1776,313.9379,-0.00026799,-4.55e-05,0.0,0 STARLINK-3272,1 50187U 21125AH  22321.82696992 -.00004550  00000-0 -26799-3 0  9995,2 50187  53.2160 261.4230 0001974  46.1776 313.9379 15.08829493 54373,6917.913000000001,95.438,541.143,538.4119999999998,0.0
50187.0,STARLINK-3272,PAYLOAD,2022-11-18 05:23:09,15.08831887,0.0001912,53.2157,259.6387,46.01,314.105,-7.7149e-05,-1.516e-05,0.0,0 STARLINK-3272,1 50187U 21125AH  22322.22441169 -.00001516  00000-0 -77149-4 0  9999,2 50187  53.2157 259.6387 0001912  46.0100 314.1050 15.08831887 54439,6917.905,95.438,541.0930000000002,538.447,0.0
50187.0,STARLINK-3272,PAYLOAD,2022-11-18 13:20:04,15.08837657,0.0001879,53.216,258.1507,49.1884,310.9271,0.00015481,2.176e-05,0.0,0 STARLINK-3272,1 50187U 21125AH  22322.55561248  .00002176  00000-0  15481-3 0  9997,2 50187  53.2160 258.1507 0001879  49.1884 310.9271 15.08837657 51400,6917.888000000001,95.438,541.052,538.453,0.0
50187.0,STARLINK-3272,PAYLOAD,2022-11-19 05:13:56,15.08857362,0.0001985,53.216,255.1781,46.1688,313.9468,0.00092291,0.00014438,0.0,0 STARLINK-3272,1 50187U 21125AH  22323.21801079  .00014438  00000-0  92291-3 0  9998,2 50187  53.2160 255.1781 0001985  46.1688 313.9468 15.08857362 54586,6917.8269999999975,95.436,541.066,538.319,0.0
50187.0,STARLINK-3272,PAYLOAD,2022-11-19 19:32:24,15.08842967,0.0002173,53.2167,252.502,53.1699,306.9492,0.00025769,3.816e-05,0.0,0 STARLINK-3272,1 50187U 21125AH  22323.81417192  .00003816  00000-0  25769-3 0  9997,2 50187  53.2167 252.5020 0002173  53.1699 306.9492 15.08842967 54674,6917.871,95.437,541.24,538.2330000000002,0.0
50187.0,STARLINK-3272,PAYLOAD,2022-11-20 05:04:43,15.08836906,0.0001612,53.2177,250.715,47.6584,312.4544,9.0784e-05,1.157e-05,0.0,0 STARLINK-3272,1 50187U 21125AH  22324.21161572  .00001157  00000-0  90784-4 0  9996,2 50187  53.2177 250.7150 0001612  47.6584 312.4544 15.08836906 51658,6917.89,95.438,540.87,538.64,0.0
50187.0,STARLINK-3272,PAYLOAD,2022-11-20 19:23:11,15.08842341,0.0002032,53.2172,248.042,36.3189,323.7941,0.000132,1.813e-05,0.0,0 STARLINK-3272,1 50187U 21125AH  22324.80777522  .00001813  00000-0  13200-3 0  9995,2 50187  53.2172 248.0420 0002032  36.3189 323.7941 15.08842341 54824,6917.873000000001,95.437,541.144,538.3330000000002,0.0
50187.0,STARLINK-3272,PAYLOAD,2022-11-21 04:55:30,15.08841322,0.0001969,53.217,246.2574,40.8079,319.306,5.7166e-05,6.22e-06,0.0,0 STARLINK-3272,1 50187U 21125AH  22325.20521603  .00000622  00000-0  57166-4 0  9994,2 50187  53.2170 246.2574 0001969  40.8079 319.3060 15.08841322 54885,6917.876,95.437,541.1030000000002,538.379,0.0
50187.0,STARLINK-3272,PAYLOAD,2022-11-21 19:13:58,15.08840847,0.0001969,53.2168,243.5814,39.7997,320.3139,0.00022492,3.293e-05,0.0,0 STARLINK-3272,1 50187U 21125AH  22325.80137641  .00003293  00000-0  22492-3 0  9995,2 50187  53.2168 243.5814 0001969  39.7997 320.3139 15.08840847 54975,6917.878000000002,95.438,541.105,538.381,0.0
50187.0,STARLINK-3272,PAYLOAD,2022-11-22 04:46:17,15.08838492,0.000202,53.2167,241.797,42.4719,317.6429,0.00013135,1.803e-05,0.0,0 STARLINK-3272,1 50187U 21125AH  22326.19881840  .00001803  00000-0  13135-3 0  9994,2 50187  53.2167 241.7970 0002020  42.4719 317.6429 15.08838492 51958,6917.885,95.438,541.1469999999998,538.3530000000002,0.0
50187.0,STARLINK-3272,PAYLOAD,2022-11-22 11:07:50,15.08843302,0.0002041,53.2168,240.6079,41.6397,318.475,0.00012071,1.634e-05,0.0,0 STARLINK-3272,1 50187U 21125AH  22326.46377567  .00001634  00000-0  12071-3 0  9990,2 50187  53.2168 240.6079 0002041  41.6397 318.4750 15.08843302 55072,6917.87,95.437,541.1469999999998,538.323,0.0
50187.0,STARLINK-3272,PAYLOAD,2022-11-22 19:04:45,15.08841826,0.0002024,53.2169,239.1211,39.5752,320.5388,0.00010422,1.371e-05,0.0,0 STARLINK-3272,1 50187U 21125AH  22326.79497533  .00001371  00000-0  10422-3 0  9998,2 50187  53.2169 239.1211 0002024  39.5752 320.5388 15.08841826 55122,6917.875,95.437,541.14,538.34,0.0
50187.0,STARLINK-3272,PAYLOAD,2022-11-23 04:37:04,15.08837744,0.0002046,53.2172,237.3368,40.2651,319.8492,2.1495e-05,5.4e-07,0.0,0 STARLINK-3272,1 50187U 21125AH  22327.19241764  .00000054  00000-0  21495-4 0  9996,2 50187  53.2172 237.3368 0002046  40.2651 319.8492 15.08837744 55187,6917.887,95.438,541.168,538.337,0.0
50187.0,STARLINK-3272,PAYLOAD,2022-11-23 18:55:33,15.08837092,0.000198,53.2176,234.6608,42.396,317.7185,0.00012275,1.666e-05,0.0,0 STARLINK-3272,1 50187U 21125AH  22327.78858000  .00001666  00000-0  12275-3 0  9993,2 50187  53.2176 234.6608 0001980  42.3960 317.7185 15.08837092 52190,6917.889,95.438,541.124,538.385,0.0
50187.0,STARLINK-3272,PAYLOAD,2022-11-24 02:52:29,15.08833,0.0002008,53.2177,233.1738,41.5362,318.5782,6.7557e-05,7.87e-06,0.0,0 STARLINK-3272,1 50187U 21125AH  22328.11978483  .00000787  00000-0  67557-4 0  9996,2 50187  53.2177 233.1738 0002008  41.5362 318.5782 15.08833000 52241,6917.901999999999,95.438,541.156,538.378,0.0
50187.0,STARLINK-3272,PAYLOAD,2022-11-25 02:43:16,15.0883856,0.0002018,53.2179,228.7131,42.3471,317.7676,9.4303e-05,1.213e-05,0.0,0 STARLINK-3272,1 50187U 21125AH  22329.11338133  .00001213  00000-0  94303-4 0  9993,2 50187  53.2179 228.7131 0002018  42.3471 317.7676 15.08838560 52396,6917.885,95.438,541.146,538.354,0.0
50187.0,STARLINK-3272,PAYLOAD,2022-11-25 10:40:12,15.08835645,0.0001976,53.2177,227.2264,42.9551,317.1595,5.0463e-05,5.15e-06,0.0,0 STARLINK-3272,1 50187U 21125AH  22329.44458437  .00000515  00000-0  50463-4 0  9992,2 50187  53.2177 227.2264 0001976  42.9551 317.1595 15.08835645 55525,6917.894,95.438,541.126,538.3919999999998,0.0
